{"type": "FeatureCollection", "features": [ {"type": "Feature", "properties": {"norad_id": 60453, "name": "LEGION 4", "group": "resource", "lat": 44.50682025139507, "lon": 127.97389583676163, "alt_km": 516.6480206503065, "timestamp": "2025-12-11T10:53:15.542907+00:00", "meta": {"OBJECT_NAME": "LEGION 4", "OBJECT_ID": "2024-146B", "EPOCH": "2025-12-11T04:11:58.227072", "MEAN_MOTION": 15.15796669, "ECCENTRICITY": 0.000962, "INCLINATION": 45.0386, "RA_OF_ASC_NODE": 50.267, "ARG_OF_PERICENTER": 303.0262, "MEAN_ANOMALY": 56.9693, "EPHEMERIS_TYPE": 0, "CLASSIFICATION_TYPE": "U", "NORAD_CAT_ID": 60453, "ELEMENT_SET_NO": 999, "REV_AT_EPOCH": 7234, "BSTAR": 0.00041033, "MEAN_MOTION_DOT": 7.72e-05, "MEAN_MOTION_DDOT": 0}, "tle": {"line1": "1 60453U 24146B   25345.17497948  .00007720  00000+0  41033-3 0  9992", "line2": "2 60453  45.0386  50.2670 0009620 303.0262  56.9693 15.15796669 72348"}}, "geometry": {"type": "Point", "coordinates": [127.97389583676163, 44.50682025139507]}}, {"type": "Feature", "properties": {"norad_id": 60989, "name": "SENTINEL-2C", "group": "resource", "lat": -42.27284953119849, "lon": -129.92291229177036, "alt_km": 796.0845426696378, "timestamp": "2025-12-11T10:53:15.542918+00:00", "meta": {"OBJECT_NAME": "SENTINEL-2C", "OBJECT_ID": "2024-157A", "EPOCH": "2025-12-11T04:48:53.226720", "MEAN_MOTION": 14.3081658, "ECCENTRICITY": 0.0001195, "INCLINATION": 98.5683, "RA_OF_ASC_NODE": 57.7053, "ARG_OF_PERICENTER": 97.5952, "MEAN_ANOMALY": 262.5366, "EPHEMERIS_TYPE": 0, "CLASSIFICATION_TYPE": "U", "NORAD_CAT_ID": 60989, "ELEMENT_SET_NO": 999, "REV_AT_EPOCH": 6610, "BSTAR": 0.00010289, "MEAN_MOTION_DOT": 2.26e-06, "MEAN_MOTION_DDOT": 0}, "tle": {"line1": "1 60989U 24157A   25345.20061605  .00000226  00000+0  10289-3 0  9992", "line2": "2 60989  98.5683  57.7053 0001195  97.5952 262.5366 14.30816580 66102"}}, "geometry": {"type": "Point", "coordinates": [-129.92291229177036, -42.27284953119849]}}, {"type": "Feature", "properties": {"norad_id": 61735, "name": "IONOSFERA-M 1", "group": "resource", "lat": 13.140072955622818, "lon": 37.36994384145047, "alt_km": 817.844387610211, "timestamp": "2025-12-11T10:53:15.542928+00:00", "meta": {"OBJECT_NAME": "IONOSFERA-M 1", "OBJECT_ID": "2024-199A", "EPOCH": "2025-12-11T05:02:36.907296", "MEAN_MOTION": 14.2271348, "ECCENTRICITY": 0.0001034, "INCLINATION": 98.7411, "RA_OF_ASC_NODE": 215.0701, "ARG_OF_PERICENTER": 24.1301, "MEAN_ANOMALY": 335.9926, "EPHEMERIS_TYPE": 0, "CLASSIFICATION_TYPE": "U", "NORAD_CAT_ID": 61735, "ELEMENT_SET_NO": 999, "REV_AT_EPOCH": 10097, "BSTAR": 6.6116e-05, "MEAN_MOTION_DOT": 1.04e-06, "MEAN_MOTION_DDOT": 0}, "tle": {"line1": "1 61735U 24199A   25345.21014939  .00000104  00000+0  66116-4 0  9993", "line2": "2 61735  98.7411 215.0701 0001034  24.1301 335.9926 14.22713480100975"}}, "geometry": {"type": "Point", "coordinates": [37.36994384145047, 13.140072955622818]}}, {"type": "Feature", "properties": {"norad_id": 61736, "name": "IONOSFERA-M 2", "group": "resource", "lat": -10.768077499164733, "lon": -143.09930786431627, "alt_km": 821.0152974018156, "timestamp": "2025-12-11T10:53:15.542939+00:00", "meta": {"OBJECT_NAME": "IONOSFERA-M 2", "OBJECT_ID": "2024-199B", "EPOCH": "2025-12-11T04:11:14.193312", "MEAN_MOTION": 14.22715671, "ECCENTRICITY": 0.0001605, "INCLINATION": 98.7403, "RA_OF_ASC_NODE": 214.9472, "ARG_OF_PERICENTER": 112.7356, "MEAN_ANOMALY": 247.3992, "EPHEMERIS_TYPE": 0, "CLASSIFICATION_TYPE": "U", "NORAD_CAT_ID": 61736, "ELEMENT_SET_NO": 999, "REV_AT_EPOCH": 10409, "BSTAR": 6.9145e-05, "MEAN_MOTION_DOT": 1.11e-06, "MEAN_MOTION_DDOT": 0}, "tle": {"line1": "1 61736U 24199B   25345.17446983  .00000111  00000+0  69145-4 0  9990", "line2": "2 61736  98.7403 214.9472 0001605 112.7356 247.3992 14.22715671104098"}}, "geometry": {"type": "Point", "coordinates": [-143.09930786431627, -10.768077499164733]}}, {"type": "Feature", "properties": {"norad_id": 63772, "name": "BIOMASS", "group": "resource", "lat": -25.50474496298674, "lon": 174.36312062260737, "alt_km": 674.7350432622779, "timestamp": "2025-12-11T10:53:15.542950+00:00", "meta": {"OBJECT_NAME": "BIOMASS", "OBJECT_ID": "2025-090A", "EPOCH": "2025-12-11T02:49:22.864800", "MEAN_MOTION": 14.67541407, "ECCENTRICITY": 0.000118, "INCLINATION": 98.07, "RA_OF_ASC_NODE": 170.1509, "ARG_OF_PERICENTER": 77.1221, "MEAN_ANOMALY": 283.0116, "EPHEMERIS_TYPE": 0, "CLASSIFICATION_TYPE": "U", "NORAD_CAT_ID": 63772, "ELEMENT_SET_NO": 999, "REV_AT_EPOCH": 3310, "BSTAR": 0.0003879, "MEAN_MOTION_DOT": 2.152e-05, "MEAN_MOTION_DDOT": 0}, "tle": {"line1": "1 63772U 25090A   25345.11762575  .00002152  00000+0  38790-3 0  9993", "line2": "2 63772  98.0700 170.1509 0001180  77.1221 283.0116 14.67541407 33101"}}, "geometry": {"type": "Point", "coordinates": [174.36312062260737, -25.50474496298674]}}, {"type": "Feature", "properties": {"norad_id": 64694, "name": "GOSAT-GW (IBUKI GW)", "group": "resource", "lat": -3.8506743541352373, "lon": 100.444508114039, "alt_km": 672.551556153182, "timestamp": "2025-12-11T10:53:15.542960+00:00", "meta": {"OBJECT_NAME": "GOSAT-GW (IBUKI GW)", "OBJECT_ID": "2025-141A", "EPOCH": "2025-12-11T03:30:27.664992", "MEAN_MOTION": 14.67565959, "ECCENTRICITY": 0.0001487, "INCLINATION": 98.0423, "RA_OF_ASC_NODE": 280.6879, "ARG_OF_PERICENTER": 82.7903, "MEAN_ANOMALY": 277.347, "EPHEMERIS_TYPE": 0, "CLASSIFICATION_TYPE": "U", "NORAD_CAT_ID": 64694, "ELEMENT_SET_NO": 999, "REV_AT_EPOCH": 2426, "BSTAR": 0.00028787, "MEAN_MOTION_DOT": 1.586e-05, "MEAN_MOTION_DDOT": 0}, "tle": {"line1": "1 64694U 25141A   25345.14615353  .00001586  00000+0  28787-3 0  9993", "line2": "2 64694  98.0423 280.6879 0001487  82.7903 277.3470 14.67565959 24267"}}, "geometry": {"type": "Point", "coordinates": [100.444508114039, -3.8506743541352373]}}, {"type": "Feature", "properties": {"norad_id": 64876, "name": "IONOSFERA-M 3", "group": "resource", "lat": 38.78726888095335, "lon": -59.61119766375598, "alt_km": 816.0181677173869, "timestamp": "2025-12-11T10:53:15.542970+00:00", "meta": {"OBJECT_NAME": "IONOSFERA-M 3", "OBJECT_ID": "2025-155A", "EPOCH": "2025-12-11T03:56:45.059424", "MEAN_MOTION": 14.21440368, "ECCENTRICITY": 0.0002257, "INCLINATION": 98.578, "RA_OF_ASC_NODE": 307.0751, "ARG_OF_PERICENTER": 62.5758, "MEAN_ANOMALY": 297.5649, "EPHEMERIS_TYPE": 0, "CLASSIFICATION_TYPE": "U", "NORAD_CAT_ID": 64876, "ELEMENT_SET_NO": 999, "REV_AT_EPOCH": 1969, "BSTAR": 8.7529e-05, "MEAN_MOTION_DOT": 1.49e-06, "MEAN_MOTION_DDOT": 0}, "tle": {"line1": "1 64876U 25155A   25345.16441041  .00000149  00000+0  87529-4 0  9997", "line2": "2 64876  98.5780 307.0751 0002257  62.5758 297.5649 14.21440368 19692"}}, "geometry": {"type": "Point", "coordinates": [-59.61119766375598, 38.78726888095335]}}, {"type": "Feature", "properties": {"norad_id": 64877, "name": "IONOSFERA-M 4", "group": "resource", "lat": -39.62101161529104, "lon": 120.0973198517274, "alt_km": 827.9948789159871, "timestamp": "2025-12-11T10:53:15.542981+00:00", "meta": {"OBJECT_NAME": "IONOSFERA-M 4", "OBJECT_ID": "2025-155B", "EPOCH": "2025-12-11T04:47:14.868096", "MEAN_MOTION": 14.21441487, "ECCENTRICITY": 0.0001618, "INCLINATION": 98.5779, "RA_OF_ASC_NODE": 307.0288, "ARG_OF_PERICENTER": 65.0323, "MEAN_ANOMALY": 295.1023, "EPHEMERIS_TYPE": 0, "CLASSIFICATION_TYPE": "U", "NORAD_CAT_ID": 64877, "ELEMENT_SET_NO": 999, "REV_AT_EPOCH": 1969, "BSTAR": 9.0432e-05, "MEAN_MOTION_DOT": 1.55e-06, "MEAN_MOTION_DDOT": 0}, "tle": {"line1": "1 64877U 25155B   25345.19947764  .00000155  00000+0  90432-4 0  9998", "line2": "2 64877  98.5779 307.0288 0001618  65.0323 295.1023 14.21441487 19695"}}, "geometry": {"type": "Point", "coordinates": [120.0973198517274, -39.62101161529104]}}, {"type": "Feature", "properties": {"norad_id": 64899, "name": "MICROCARB", "group": "resource", "lat": 38.81672676101288, "lon": -112.68163800106902, "alt_km": 639.7378415767362, "timestamp": "2025-12-11T10:53:15.542991+00:00", "meta": {"OBJECT_NAME": "MICROCARB", "OBJECT_ID": "2025-156A", "EPOCH": "2025-12-11T05:21:25.661088", "MEAN_MOTION": 14.72052934, "ECCENTRICITY": 0.0017044, "INCLINATION": 98.0027, "RA_OF_ASC_NODE": 60.593, "ARG_OF_PERICENTER": 149.3859, "MEAN_ANOMALY": 210.8346, "EPHEMERIS_TYPE": 0, "CLASSIFICATION_TYPE": "U", "NORAD_CAT_ID": 64899, "ELEMENT_SET_NO": 999, "REV_AT_EPOCH": 2031, "BSTAR": 0.0001848, "MEAN_MOTION_DOT": 1.114e-05, "MEAN_MOTION_DDOT": 0}, "tle": {"line1": "1 64899U 25156A   25345.22321367  .00001114  00000+0  18480-3 0  9990", "line2": "2 64899  98.0027  60.5930 0017044 149.3859 210.8346 14.72052934 20319"}}, "geometry": {"type": "Point", "coordinates": [-112.68163800106902, 38.81672676101288]}}, {"type": "Feature", "properties": {"norad_id": 64900, "name": "CO3D 3", "group": "resource", "lat": -40.00240281813266, "lon": 68.129488515947, "alt_km": 512.4767607019248, "timestamp": "2025-12-11T10:53:15.543002+00:00", "meta": {"OBJECT_NAME": "CO3D 3", "OBJECT_ID": "2025-156B", "EPOCH": "2025-12-11T04:44:46.317120", "MEAN_MOTION": 15.20218213, "ECCENTRICITY": 0.0001367, "INCLINATION": 97.4338, "RA_OF_ASC_NODE": 61.5868, "ARG_OF_PERICENTER": 101.3203, "MEAN_ANOMALY": 258.8185, "EPHEMERIS_TYPE": 0, "CLASSIFICATION_TYPE": "U", "NORAD_CAT_ID": 64900, "ELEMENT_SET_NO": 999, "REV_AT_EPOCH": 2097, "BSTAR": 0.00044425, "MEAN_MOTION_DOT": 9.566e-05, "MEAN_MOTION_DDOT": 0}, "tle": {"line1": "1 64900U 25156B   25345.19775830  .00009566  00000+0  44425-3 0  9994", "line2": "2 64900  97.4338  61.5868 0001367 101.3203 258.8185 15.20218213 20976"}}, "geometry": {"type": "Point", "coordinates": [68.129488515947, -40.00240281813266]}}]}